{
  "name": "INTELSAT",
  "date": "2020-03-15 20:08:42 CET",
  "tles": [{
    "INTELSAT 26": [
      "1 24732C 97007A   20069.00000000  .00000109  00000-0  00000-0 0   696",
      "2 24732   8.8978  43.5529 0008289 309.7495 237.4519  1.00275730    19"
    ],
    "INTELSAT 26-1": [
      "1 24732C 97007A   20072.00000000  .00000109  00000-0  00000-0 0   724",
      "2 24732   8.9059  43.5314 0008054 314.4267 235.7471  1.00277021    15"
    ],
    "INTELSAT 26         [PM]": [
      "1 24732C 97007A   20075.20833333  .00000108  00000-0  00000-0 0   754",
      "2 24732   8.9126  43.5532 0002854 330.7048 297.6694  1.00267526    15"
    ],
    "GALAXY 25": [
      "1 24812C 97026A   20069.00000000  .00000246  00000-0  00000-0 0   698",
      "2 24812   1.6853  91.4133 0003127 259.8218 208.7866  1.00270542    10"
    ],
    "GALAXY 25-1": [
      "1 24812C 97026A   20072.00000000  .00000246  00000-0  00000-0 0   726",
      "2 24812   1.6934  91.2449 0002994 273.9985 197.7353  1.00272924    11"
    ],
    "GALAXY 25           [PM]": [
      "1 24812C 97026A   20074.66628472  .00000246  00000-0  00000-0 0   741",
      "2 24812   1.7032  91.0573 0002695 268.9118  85.5031  1.00269677    15"
    ],
    "INTELSAT 5          [PM]": [
      "1 24916C 97046A   20063.51267361  .00000186  00000-0  00000-0 0   637",
      "2 24916   5.4950  66.1530 0003381 287.9417 215.1994  1.00269526    14"
    ],
    "INTELSAT 5": [
      "1 24916C 97046A   20069.00000000  .00000186  00000-0  00000-0 0   698",
      "2 24916   5.5030  66.1290 0001706 302.9596  21.0348  1.00269426    18"
    ],
    "INTELSAT 5-1": [
      "1 24916C 97046A   20072.00000000  .00000186  00000-0  00000-0 0   726",
      "2 24916   5.5127  66.0792 0001864 324.8415   2.1569  1.00271539    12"
    ],
    "GALAXY 11": [
      "1 26038C 99071A   20069.00000000 -.00000072  00000-0  00000-0 0   690",
      "2 26038   0.9736  98.2099 0000856 244.2068  91.6199  1.00269063    11"
    ],
    "GALAXY 11-1": [
      "1 26038C 99071A   20072.00000000 -.00000072  00000-0  00000-0 0   728",
      "2 26038   0.9808  97.9030 0000695 269.7672  69.3144  1.00270017    19"
    ],
    "INTELSAT 9          [PM]": [
      "1 26451C 00043A   20064.76532407 -.00000146  00000-0  00000-0 0   646",
      "2 26451   5.4873  66.3358 0003756 290.0042  48.1500  1.00097396    10"
    ],
    "INTELSAT 9": [
      "1 26451C 00043A   20069.00000000 -.00000157  00000-0  00000-0 0   694",
      "2 26451   5.4923  66.3164 0005631 307.8485 116.3146  1.00095911    18"
    ],
    "INTELSAT 9-1": [
      "1 26451C 00043A   20072.00000000 -.00000164  00000-0  00000-0 0   720",
      "2 26451   5.5015  66.2728 0005736 314.3967 110.8589  1.00095616    12"
    ],
    "INTELSAT 12": [
      "1 26590C 00068A   20069.00000000  .00000104  00000-0  00000-0 0   696",
      "2 26590   2.6951  87.1461 0004018 282.2149 222.0181  1.00270992    12"
    ],
    "INTELSAT 12-1": [
      "1 26590C 00068A   20072.00000000  .00000104  00000-0  00000-0 0   724",
      "2 26590   2.7038  87.0335 0004109 292.2545 215.0364  1.00271467    13"
    ],
    "INTELSAT 12         [PM]": [
      "1 26590C 00068A   20074.15033565  .00000104  00000-0  00000-0 0   746",
      "2 26590   2.7141  81.1079 0003911 285.6158 283.8471  1.00271581    13"
    ],
    "INTELSAT 12         [PM]-1": [
      "1 26590C 00068A   20075.54513889  .00000104  00000-0  00000-0 0   753",
      "2 26590   2.7162  87.0015 0003488 291.5373  55.5296  1.00271461    11"
    ],
    "INTELSAT 1R": [
      "1 26608C 00072A   20069.00000000 -.00000047  00000-0  00000-0 0   698",
      "2 26608   2.4934  86.7742 0000572 219.4646  17.9855  1.00269892    19"
    ],
    "INTELSAT 1R-1": [
      "1 26608C 00072A   20072.00000000 -.00000047  00000-0  00000-0 0   726",
      "2 26608   2.5024  86.6579 0000215 253.5807 346.9303  1.00270602    13"
    ],
    "INTELSAT 10": [
      "1 26766C 01019A   20069.00000000  .00000217  00000-0  00000-0 0   693",
      "2 26766   3.6620  79.6855 0002674 278.6619 216.3012  1.00267936    14"
    ],
    "INTELSAT 10         [PM]": [
      "1 26766C 01019A   20070.52315972  .00000217  00000-0  00000-0 0   701",
      "2 26766   3.6661  79.6322 0001779 272.7791  52.0610  1.00268614    12"
    ],
    "INTELSAT 10-1": [
      "1 26766C 01019A   20072.00000000  .00000217  00000-0  00000-0 0   721",
      "2 26766   3.6711  79.6035 0002614 291.0671 206.9097  1.00269985    10"
    ],
    "INTELSAT 901": [
      "1 26824C 01024A   20058.00000000 -.00000255  00000-0  00000-0 0   583",
      "2 26824   1.6423  91.3343 0002042 337.4981 213.9513  0.99202588    14"
    ],
    "INTELSAT 901-1": [
      "1 26824C 01024A   20062.00000000 -.00000249  00000-0  00000-0 0   626",
      "2 26824   1.6536  91.2327 0002266 333.6040 206.4500  0.99200428    16"
    ],
    "INTELSAT 902": [
      "1 26900C 01039A   20069.00000000 -.00000111  00000-0  00000-0 0   699",
      "2 26900   0.3799  98.5124 0006179 267.0783 134.4962  1.00061610    17"
    ],
    "INTELSAT 902-1": [
      "1 26900C 01039A   20072.00000000 -.00000123  00000-0  00000-0 0   720",
      "2 26900   0.3871  97.7708 0006157 274.4538 128.5543  1.00061816    10"
    ],
    "INTELSAT 904": [
      "1 27380C 02007A   20069.00000000 -.00000123  00000-0  00000-0 0   691",
      "2 27380   1.2194  94.4822 0003035 258.4650 144.6825  1.00271623    12"
    ],
    "INTELSAT 904-1": [
      "1 27380C 02007A   20072.00000000 -.00000123  00000-0  00000-0 0   729",
      "2 27380   1.2269  94.2534 0002887 272.0960 134.2319  1.00271638    12"
    ],
    "INTELSAT 904        [PM]": [
      "1 27380C 02007A   20074.84119213 -.00000123  00000-0  00000-0 0   742",
      "2 27380   1.2373  94.1932 0002775 277.0159  74.9964  1.00272657    18"
    ],
    "INTELSAT 903": [
      "1 27403C 02016A   20069.00000000 -.00000134  00000-0  00000-0 0   699",
      "2 27403   2.0494  89.6225 0002191 301.5761 104.4356  1.00270446    13"
    ],
    "INTELSAT 903-1": [
      "1 27403C 02016A   20072.00000000 -.00000134  00000-0  00000-0 0   727",
      "2 27403   2.0573  89.4839 0002090 308.8691 100.2326  1.00271816    13"
    ],
    "INTELSAT 903        [PM]": [
      "1 27403C 02016A   20077.85641204 -.00000134  00000-0  00000-0 0   777",
      "2 27403   2.0749  89.4852 0002163 323.2849  39.8847  1.00272839    11"
    ],
    "INTELSAT 905": [
      "1 27438C 02027A   20069.00000000 -.00000094  00000-0  00000-0 0   694",
      "2 27438   1.0395  95.4779 0003009 252.5318 154.6118  1.00275916    11"
    ],
    "INTELSAT 905        [PM]": [
      "1 27438C 02027A   20070.59196759 -.00000094  00000-0  00000-0 0   709",
      "2 27438   1.0429  95.3365 0002894 252.9075   9.0615  1.00271231    15"
    ],
    "INTELSAT 905-1": [
      "1 27438C 02027A   20072.00000000 -.00000094  00000-0  00000-0 0   722",
      "2 27438   1.0471  95.2153 0002762 260.3904 149.9759  1.00271954    19"
    ],
    "GALAXY 3C": [
      "1 27445C 02030A   20069.00000000 -.00000065  00000-0  00000-0 0   694",
      "2 27445   0.0134 229.1148 0002167 104.8452  98.1093  1.00265378    12"
    ],
    "GALAXY 3C-1": [
      "1 27445C 02030A   20072.00000000 -.00000064  00000-0  00000-0 0   721",
      "2 27445   0.0312 283.8289 0001983  49.4379 101.7527  1.00268412    15"
    ],
    "INTELSAT 906": [
      "1 27513C 02041A   20069.00000000  .00000105  00000-0  00000-0 0   696",
      "2 27513   0.0465 124.0530 0002485 225.7832 241.4299  1.00271379    10"
    ],
    "INTELSAT 906-1": [
      "1 27513C 02041A   20072.00000000  .00000105  00000-0  00000-0 0   724",
      "2 27513   0.0534 117.2174 0002323 248.8695 228.1347  1.00272541    17"
    ],
    "INTELSAT 906        [PM]": [
      "1 27513C 02041A   20076.09515046  .00000105  00000-0  00000-0 0   762",
      "2 27513   0.0665 111.3596 0002190 260.9994 260.1712  1.00270327    16"
    ],
    "INTELSAT 907": [
      "1 27683C 03007A   20069.00000000 -.00000112  00000-0  00000-0 0   696",
      "2 27683   0.0114 135.9901 0002869 215.7878 147.8479  1.00272142    15"
    ],
    "INTELSAT 907-1": [
      "1 27683C 03007A   20072.00000000 -.00000112  00000-0  00000-0 0   724",
      "2 27683   0.0180 120.1237 0002696 245.8285 136.6336  1.00272275    15"
    ],
    "INTELSAT 907        [PM]": [
      "1 27683C 03007A   20074.51111111 -.00000103  00000-0  00000-0 0   740",
      "2 27683   0.0296  80.3458 0002636 282.1047 326.6137  1.00271996    18"
    ],
    "GALAXY 12": [
      "1 27715C 03013B   20069.00000000  .00000149  00000-0  00000-0 0   698",
      "2 27715   1.2553  93.6315 0002167 261.8734  42.6165  1.00270918    17"
    ],
    "GALAXY 12-1": [
      "1 27715C 03013B   20072.00000000  .00000149  00000-0  00000-0 0   726",
      "2 27715   1.2632  93.4076 0002072 273.9378  33.7277  1.00270814    10"
    ],
    "GALAXY 12           [PM]": [
      "1 27715C 03013B   20077.61082176  .00000149  00000-0  00000-0 0   777",
      "2 27715   1.2805  93.4194 0002072 284.7836 248.3069  1.00270549    10"
    ],
    "GALAXY 23": [
      "1 27854C 03034A   20069.00000000  .00000103  00000-0  00000-0 0   695",
      "2 27854   0.0426 256.5672 0003278  96.2381  53.3218  1.00270953    12"
    ],
    "GALAXY 23-1": [
      "1 27854C 03034A   20072.00000000  .00000054  00000-0  00000-0 0   728",
      "2 27854   0.0305 249.7312 0003165 113.1983  46.1465  1.00271294    18"
    ],
    "GALAXY 23           [PM]": [
      "1 27854C 03034A   20074.58996528  .00000103  00000-0  00000-0 0   749",
      "2 27854   0.0454 269.5449 0003062  98.1380 256.3323  1.00271031    10"
    ],
    "GALAXY 13           [PM]": [
      "1 27954C 03044A   20063.75052083 -.00000191  00000-0  00000-0 0   633",
      "2 27954   0.0350 318.8270 0001421  38.0468 308.2449  1.00270713    15"
    ],
    "GALAXY 13": [
      "1 27954C 03044A   20069.00000000  .00000129  00000-0  00000-0 0   695",
      "2 27954   0.0049 171.1451 0002064  48.5468 180.4334  1.00268774    18"
    ],
    "GALAXY 13-1": [
      "1 27954C 03044A   20072.00000000 -.00000016  00000-0  00000-0 0   729",
      "2 27954   0.0000 172.1589 0000952  51.7672 179.1366  1.00269760    11"
    ],
    "INTELSAT 10-02": [
      "1 28358C 04022A   20069.00000000  .00000079  00000-0  00000-0 0   695",
      "2 28358   0.0042 162.9082 0003204 208.7640 154.4614  1.00271357    10"
    ],
    "INTELSAT 10-02-1": [
      "1 28358C 04022A   20072.00000000  .00000084  00000-0  00000-0 0   729",
      "2 28358   0.0051 207.7717 0003127 175.6670 145.6392  1.00270757    10"
    ],
    "INTELSAT 10-02      [PM]": [
      "1 28358C 04022A   20078.79097222  .00000080  00000-0  00000-0 0   785",
      "2 28358   0.0038 191.3103 0003197 206.0810  63.1300  1.00271947    19"
    ],
    "GALAXY 28": [
      "1 28702C 05022A   20069.00000000 -.00000095  00000-0  00000-0 0   698",
      "2 28702   0.0181 120.9351 0002692 233.1838  84.0030  1.00271977    19"
    ],
    "GALAXY 28-1": [
      "1 28702C 05022A   20072.00000000 -.00000095  00000-0  00000-0 0   726",
      "2 28702   0.0147 119.7285 0002657 244.6475  76.6940  1.00269428    13"
    ],
    "GALAXY 28           [PM]": [
      "1 28702C 05022A   20075.54010417 -.00000095  00000-0  00000-0 0   754",
      "2 28702   0.0171 108.8201 0002534 256.9868 273.2031  1.00270484    13"
    ],
    "GALAXY 14": [
      "1 28790C 05030A   20069.00000000  .00000124  00000-0  00000-0 0   696",
      "2 28790   0.0538 319.9577 0002610  30.4336  51.7343  1.00270522    16"
    ],
    "GALAXY 14-1": [
      "1 28790C 05030A   20072.00000000  .00000124  00000-0  00000-0 0   724",
      "2 28790   0.0494 330.6454 0002481  31.8400  42.5949  1.00272107    15"
    ],
    "GALAXY 14           [PM]": [
      "1 28790C 05030A   20074.68375000  .00000107  00000-0  00000-0 0   748",
      "2 28790   0.0408 338.9686 0002460  25.3413 289.5745  1.00269903    14"
    ],
    "GALAXY 15": [
      "1 28884C 05041A   20069.00000000  .00000169  00000-0  00000-0 0   691",
      "2 28884   0.0485 271.0764 0002037  79.4607  43.5907  1.00270490    13"
    ],
    "GALAXY 15-1": [
      "1 28884C 05041A   20072.00000000  .00000171  00000-0  00000-0 0   722",
      "2 28884   0.0373 266.7114 0001904  94.5236  35.8463  1.00269995    16"
    ],
    "GALAXY 15           [PM]": [
      "1 28884C 05041A   20072.54166667  .00000169  00000-0  00000-0 0   720",
      "2 28884   0.0350 266.6981 0001901  98.4797 227.4335  1.00270673    16"
    ],
    "GALAXY 16": [
      "1 29236C 06023A   20069.00000000 -.00000037  00000-0  00000-0 0   699",
      "2 29236   0.0054 162.8343 0003398 199.9506  65.3455  1.00269836    16"
    ],
    "GALAXY 16-1": [
      "1 29236C 06023A   20072.00000000 -.00000034  00000-0  00000-0 0   724",
      "2 29236   0.0072 144.9482 0002777 210.1541  75.9866  1.00270222    10"
    ],
    "GALAXY 16           [PM]": [
      "1 29236C 06023A   20075.07076389 -.00000037  00000-0  00000-0 0   753",
      "2 29236   0.0184 249.7885 0002642 111.9441  97.8444  1.00271926    10"
    ],
    "GALAXY 17": [
      "1 31307C 07016B   20069.00000000 -.00000089  00000-0  00000-0 0   691",
      "2 31307   0.0029 119.8024 0003301 230.5631  85.7506  1.00271868    14"
    ],
    "GALAXY 17-1": [
      "1 31307C 07016B   20072.00000000 -.00000084  00000-0  00000-0 0   724",
      "2 31307   0.0164  96.6505 0003223 265.0665  77.3625  1.00272299    11"
    ],
    "GALAXY 17           [PM]": [
      "1 31307C 07016B   20076.05321759 -.00000085  00000-0  00000-0 0   765",
      "2 31307   0.0297 307.4422 0003124  67.3241  87.4756  1.00269253    15"
    ],
    "INTELSAT 11": [
      "1 32253C 07044B   20069.00000000 -.00000192  00000-0  00000-0 0   698",
      "2 32253   0.0067 195.1082 0001848 172.1746 116.8587  1.00270921    14"
    ],
    "INTELSAT 11-1": [
      "1 32253C 07044B   20072.00000000 -.00000124  00000-0  00000-0 0   721",
      "2 32253   0.0000 172.6663 0001835 212.3309 102.0914  1.00272500    10"
    ],
    "INTELSAT 11         [PM]": [
      "1 32253C 07044B   20075.92500000 -.00000178  00000-0  00000-0 0   752",
      "2 32253   0.0143 243.4097 0001953 155.5648  64.9879  1.00271517    14"
    ],
    "HORIZONS 2": [
      "1 32388C 07063B   20069.00000000 -.00000092  00000-0  00000-0 0   697",
      "2 32388   0.0003 158.0172 0003103 191.3786 262.5789  1.00270562    18"
    ],
    "HORIZONS 2-1": [
      "1 32388C 07063B   20072.00000000 -.00000093  00000-0  00000-0 0   726",
      "2 32388   0.0042 136.3144 0002905 221.6750 256.9301  1.00272972    10"
    ],
    "HORIZONS 2          [PM]": [
      "1 32388C 07063B   20075.57290509 -.00000092  00000-0  00000-0 0   758",
      "2 32388   0.0195 266.2471 0002915 100.9006  97.5456  1.00271167    14"
    ],
    "GALAXY 18": [
      "1 32951C 08024A   20069.00000000  .00000115  00000-0  00000-0 0   696",
      "2 32951   0.0030 162.0533 0003244 194.7157  47.3541  1.00270135    16"
    ],
    "GALAXY 18-1": [
      "1 32951C 08024A   20072.00000000  .00000110  00000-0  00000-0 0   729",
      "2 32951   0.0055 140.6904 0003198 227.7216  38.6629  1.00271654    15"
    ],
    "GALAXY 18           [PM]": [
      "1 32951C 08024A   20075.13680556  .00000115  00000-0  00000-0 0   754",
      "2 32951   0.0190 256.9905 0003090 122.6992  79.7352  1.00270475    11"
    ],
    "INTELSAT 25": [
      "1 33153C 08034A   20069.00000000 -.00000133  00000-0  00000-0 0   693",
      "2 33153   0.0151 185.6643 0002695 131.5339 178.4355  1.00269699    10"
    ],
    "INTELSAT 25-1": [
      "1 33153C 08034A   20072.00000000 -.00000134  00000-0  00000-0 0   722",
      "2 33153   0.0106 172.3750 0002449 149.8140 176.3802  1.00275470    19"
    ],
    "INTELSAT 25         [PM]": [
      "1 33153C 08034A   20075.38144676 -.00000134  00000-0  00000-0 0   757",
      "2 33153   0.0238 236.3770 0002058  88.0125 314.8354  1.00273496    18"
    ],
    "GALAXY 19": [
      "1 33376C 08045A   20069.00000000 -.00000049  00000-0  00000-0 0   698",
      "2 33376   0.0195 229.6693 0003118 123.9268  76.5222  1.00271469    15"
    ],
    "GALAXY 19-1": [
      "1 33376C 08045A   20072.00000000 -.00000062  00000-0  00000-0 0   721",
      "2 33376   0.0050 210.1741 0003025 154.6649  68.2402  1.00271163    14"
    ],
    "GALAXY 19           [PM]": [
      "1 33376C 08045A   20072.74305556 -.00000090  00000-0  00000-0 0   727",
      "2 33376   0.0015 203.0346 0003008 164.3786 333.8981  1.00271459    19"
    ],
    "INTELSAT 14": [
      "1 36097C 09064A   20069.00000000 -.00000239  00000-0  00000-0 0   694",
      "2 36097   0.0068 158.9942 0002749 196.2039 126.9319  1.00271311    19"
    ],
    "INTELSAT 14-1": [
      "1 36097C 09064A   20072.00000000 -.00000183  00000-0  00000-0 0   720",
      "2 36097   0.0090 142.7580 0002610 223.8404 118.4828  1.00272773    17"
    ],
    "INTELSAT 14         [PM]": [
      "1 36097C 09064A   20076.91598380 -.00000183  00000-0  00000-0 0   761",
      "2 36097   0.0093 216.5642 0002572 168.3223  74.8014  1.00267271    17"
    ],
    "INTELSAT 15": [
      "1 36106C 09067A   20069.00000000 -.00000095  00000-0  00000-0 0   698",
      "2 36106   0.0151 120.9397 0002611 238.4317 252.9192  1.00271611    14"
    ],
    "INTELSAT 15-1": [
      "1 36106C 09067A   20072.00000000 -.00000093  00000-0  00000-0 0   724",
      "2 36106   0.0105 234.2802 0002511 139.2286 241.7326  1.00271384    17"
    ],
    "INTELSAT 15         [PM]": [
      "1 36106C 09067A   20079.01918982 -.00000095  00000-0  00000-0 0   798",
      "2 36106   0.0110 113.5988 0002159 243.0960 272.3706  1.00272133    13"
    ],
    "INTELSAT 16": [
      "1 36397C 10006A   20069.00000000 -.00000155  00000-0  00000-0 0   692",
      "2 36397   0.0149 125.4281 0002334 227.2726  98.2301  1.00269834    14"
    ],
    "INTELSAT 16-1": [
      "1 36397C 10006A   20072.00000000 -.00000155  00000-0  00000-0 0   720",
      "2 36397   0.0067 219.3059 0002076 147.9371  86.6288  1.00269998    12"
    ],
    "INTELSAT 16         [PM]": [
      "1 36397C 10006A   20078.00724537 -.00000154  00000-0  00000-0 0   789",
      "2 36397   0.0068 132.8803 0001962 241.0354  88.4849  1.00273238    14"
    ],
    "INTELSAT 17": [
      "1 37238C 10065B   20069.00000000  .00000089  00000-0  00000-0 0   697",
      "2 37238   0.0192 200.0690 0002928 158.5980 234.4597  1.00271271    17"
    ],
    "INTELSAT 17-1": [
      "1 37238C 10065B   20072.00000000  .00000089  00000-0  00000-0 0   725",
      "2 37238   0.0115 187.1565 0002647 171.1500 237.7578  1.00271563    14"
    ],
    "INTELSAT 17         [PM]": [
      "1 37238C 10065B   20076.60715278  .00000089  00000-0  00000-0 0   769",
      "2 37238   0.0273 239.2234 0002408 130.3464  89.6170  1.00271961    16"
    ],
    "INTELSAT NEW DAWN": [
      "1 37392C 11016A   20069.00000000  .00000246  00000-0  00000-0 0   690",
      "2 37392   0.0196 184.4578 0001096 171.1067 204.3680  1.00272649    13"
    ],
    "INTELSAT NEW DAWN-1": [
      "1 37392C 11016A   20072.00000000  .00000246  00000-0  00000-0 0   728",
      "2 37392   0.0151 172.2055 0000934 205.0755 185.6102  1.00271825    15"
    ],
    "INTELSAT NEW DAWN   [PM]": [
      "1 37392C 11016A   20076.71886574  .00000246  00000-0  00000-0 0   762",
      "2 37392   0.0181 200.6776 0000970 104.4203 161.2051  1.00272263    14"
    ],
    "INTELSAT 18": [
      "1 37834C 11056A   20069.00000000  .00000144  00000-0  00000-0 0   692",
      "2 37834   0.0087 137.5758 0003149 236.9997 332.5489  1.00269988    18"
    ],
    "INTELSAT 18-1": [
      "1 37834C 11056A   20072.00000000  .00000143  00000-0  00000-0 0   729",
      "2 37834   0.0201 248.1516 0003138 133.4731 328.4570  1.00274590    12"
    ],
    "INTELSAT 18         [PM]": [
      "1 37834C 11056A   20074.17417824  .00000142  00000-0  00000-0 0   746",
      "2 37834   0.0070 227.6015 0002785 154.7668  32.5501  1.00270432    12"
    ],
    "INTELSAT 22": [
      "1 38098C 12011A   20069.00000000  .00000032  00000-0  00000-0 0   693",
      "2 38098   0.0132 215.6204 0003149 134.2230 249.3836  1.00271460    15"
    ],
    "INTELSAT 22-1": [
      "1 38098C 12011A   20072.00000000  .00000032  00000-0  00000-0 0   721",
      "2 38098   0.0450 278.8519 0002915  80.1965 243.1292  1.00271033    16"
    ],
    "INTELSAT 22         [PM]": [
      "1 38098C 12011A   20072.39761574  .00000032  00000-0  00000-0 0   723",
      "2 38098   0.0429 279.9183 0002898  79.2644  26.5292  1.00271116    19"
    ],
    "INTELSAT 19": [
      "1 38356C 12030A   20069.00000000  .00000032  00000-0  00000-0 0   691",
      "2 38356   0.0328 255.4673 0003098  94.3319 343.3283  1.00269279    14"
    ],
    "INTELSAT 19         [PM]": [
      "1 38356C 12030A   20070.13333333  .00000033  00000-0  00000-0 0   708",
      "2 38356   0.0250 245.5405 0002881 108.6692  28.0192  1.00270902    14"
    ],
    "INTELSAT 19-1": [
      "1 38356C 12030A   20072.00000000  .00000033  00000-0  00000-0 0   720",
      "2 38356   0.0153 237.9445 0002774 123.4624 334.6602  1.00271916    14"
    ],
    "INTELSAT 20": [
      "1 38740C 12043A   20069.00000000  .00000066  00000-0  00000-0 0   699",
      "2 38740   0.0150 157.9958 0001978  23.8061  53.8274  1.00269979    12"
    ],
    "INTELSAT 20         [PM]": [
      "1 38740C 12043A   20071.75000000  .00000066  00000-0  00000-0 0   717",
      "2 38740   0.0116 158.2335 0002163  14.6041 335.4966  1.00270705    16"
    ],
    "INTELSAT 20-1": [
      "1 38740C 12043A   20072.00000000  .00000067  00000-0  00000-0 0   728",
      "2 38740   0.0123 156.2640 0002193  14.5735  67.7425  1.00270943    12"
    ],
    "INTELSAT 21": [
      "1 38749C 12045A   20069.00000000 -.00000191  00000-0  00000-0 0   690",
      "2 38749   0.0050 174.1548 0002154 247.7153  47.2656  1.00269860    12"
    ],
    "INTELSAT 21         [PM]": [
      "1 38749C 12045A   20071.60927083 -.00000212  00000-0  00000-0 0   715",
      "2 38749   0.0030 159.4639 0002558 266.4965 265.0818  1.00272262    14"
    ],
    "INTELSAT 21-1": [
      "1 38749C 12045A   20072.00000000 -.00000256  00000-0  00000-0 0   720",
      "2 38749   0.0035 156.2002 0002608 270.7318  45.1574  1.00272337    13"
    ],
    "INTELSAT 23": [
      "1 38867C 12057A   20069.00000000 -.00000195  00000-0  00000-0 0   698",
      "2 38867   0.0252 237.2806 0002071 105.2396 131.6076  1.00271174    15"
    ],
    "INTELSAT 23-1": [
      "1 38867C 12057A   20072.00000000 -.00000216  00000-0  00000-0 0   720",
      "2 38867   0.0097 218.6697 0001764 140.7749 117.6246  1.00270104    12"
    ],
    "INTELSAT 23         [PM]": [
      "1 38867C 12057A   20074.01488426 -.00000191  00000-0  00000-0 0   749",
      "2 38867   0.0012 192.2653 0001841 165.0133 127.1200  1.00274800    14"
    ],
    "INTELSAT 30": [
      "1 40271C 14062A   20069.00000000 -.00000061  00000-0  00000-0 0   690",
      "2 40271   0.0020 158.3736 0001555 315.3854 318.3192  1.00269126    11"
    ],
    "INTELSAT 30         [PM]": [
      "1 40271C 14062A   20071.12430556 -.00000137  00000-0  00000-0 0   716",
      "2 40271   0.0000 168.4820 0001966 305.2535   5.1696  1.00272191    11"
    ],
    "INTELSAT 30-1": [
      "1 40271C 14062A   20072.00000000 -.00000082  00000-0  00000-0 0   721",
      "2 40271   0.0000 155.9637 0002014 315.2825 323.7717  1.00270376    12"
    ],
    "INTELSAT 34": [
      "1 40874C 15039A   20069.00000000 -.00000194  00000-0  00000-0 0   691",
      "2 40874   0.0012 163.2604 0000387 103.5145 204.8759  1.00269169    17"
    ],
    "INTELSAT 34-1": [
      "1 40874C 15039A   20072.00000000 -.00000140  00000-0  00000-0 0   720",
      "2 40874   0.0001 171.6937 0000210 344.8896 318.0064  1.00269207    15"
    ],
    "INTELSAT 34         [PM]": [
      "1 40874C 15039A   20072.02327546 -.00000174  00000-0  00000-0 0   726",
      "2 40874   0.0001 150.7590 0000097 339.3816 352.8469  1.00272466    18"
    ],
    "INTELSAT 31": [
      "1 41581C 16035A   20069.00000000 -.00000061  00000-0  00000-0 0   697",
      "2 41581   0.0188 204.3489 0002463   3.8259 223.9088  1.00269621    10"
    ],
    "INTELSAT 31-1": [
      "1 41581C 16035A   20072.00000000 -.00000061  00000-0  00000-0 0   725",
      "2 41581   0.0157 213.5477 0002534 344.1961 237.2855  1.00269897    10"
    ],
    "INTELSAT 31         [PM]": [
      "1 41581C 16035A   20072.12254630 -.00000061  00000-0  00000-0 0   728",
      "2 41581   0.0159 215.3574 0002613 339.8862 284.0185  1.00272268    11"
    ],
    "INTELSAT 36": [
      "1 41747C 16053A   20069.00000000  .00000087  00000-0  00000-0 0   698",
      "2 41747   0.0001 125.4619 0001292 235.6451 234.5233  1.00270165    19"
    ],
    "INTELSAT 36-1": [
      "1 41747C 16053A   20072.00000000  .00000067  00000-0  00000-0 0   724",
      "2 41747   0.0001 114.1314 0001112 267.3374 217.1099  1.00270627    13"
    ],
    "INTELSAT 36         [PM]": [
      "1 41747C 16053A   20072.26111111  .00000060  00000-0  00000-0 0   721",
      "2 41747   0.0366   9.0001 0001173 355.8721 327.9604  1.00271706    19"
    ],
    "INTELSAT 33E": [
      "1 41748C 16053B   20069.00000000  .00000168  00000-0  00000-0 0   699",
      "2 41748   0.0368  29.7886 0002082 329.1174 228.2063  1.00270794    16"
    ],
    "INTELSAT 33E-1": [
      "1 41748C 16053B   20072.00000000  .00000067  00000-0  00000-0 0   725",
      "2 41748   0.0141  54.5261 0001950 321.0599 214.4756  1.00271688    12"
    ],
    "INTELSAT 33E        [PM]": [
      "1 41748C 16053B   20075.16954861  .00000114  00000-0  00000-0 0   754",
      "2 41748   0.0004  60.0740 0001756 325.7088 268.4482  1.00273447    12"
    ]  }, {
    "INTELSAT 32E": [
      "1 41945C 17007B   20069.00000000 -.00000178  00000-0  00000-0 0   690",
      "2 41945   0.0021 164.3407 0000396 144.4409 175.1813  1.00269384    17"
    ],
    "INTELSAT 32E        [PM]": [
      "1 41945C 17007B   20071.95069444 -.00000258  00000-0  00000-0 0   716",
      "2 41945   0.0001 159.2048 0000392 235.7122  74.1750  1.00273619    15"
    ],
    "INTELSAT 32E-1": [
      "1 41945C 17007B   20072.00000000 -.00000208  00000-0  00000-0 0   722",
      "2 41945   0.0029 147.2763 0000292 279.5168  60.1018  1.00269871    18"
    ],
    "INTELSAT 35E": [
      "1 42818C 17041A   20069.00000000 -.00000148  00000-0  00000-0 0   695",
      "2 42818   0.0288 201.4872 0002435 155.0938 136.0376  1.00271733    13"
    ],
    "INTELSAT 35E        [PM]": [
      "1 42818C 17041A   20069.42664352 -.00000148  00000-0  00000-0 0   697",
      "2 42818   0.0284 202.0417 0002420 157.1774 287.4130  1.00271936    10"
    ],
    "INTELSAT 35E-1": [
      "1 42818C 17041A   20072.00000000 -.00000149  00000-0  00000-0 0   724",
      "2 42818   0.0215 193.6376 0002317 176.4934 125.4446  1.00271747    11"
    ],
    "INTELSAT 37E": [
      "1 42950C 17059A   20069.00000000 -.00000102  00000-0  00000-0 0   691",
      "2 42950   0.0064 147.1437 0002157 207.4154 154.5710  1.00269976    11"
    ],
    "INTELSAT 37E-1": [
      "1 42950C 17059A   20072.00000000 -.00000040  00000-0  00000-0 0   720",
      "2 42950   0.0002 186.6307 0001935 184.8649 140.5745  1.00270745    16"
    ],
    "INTELSAT 37E        [PM]": [
      "1 42950C 17059A   20076.38263889 -.00000038  00000-0  00000-0 0   762",
      "2 42950   0.0025 200.3028 0001798 184.9006 268.9192  1.00271411    12"
    ],
    "AZERSPACE 2": [
      "1 43632C 18074A   20069.00000000  .00000227  00000-0  00000-0 0   694",
      "2 43632   0.0035 154.1755 0001515 195.2922 222.7698  1.00270652    18"
    ],
    "AZERSPACE 2-1": [
      "1 43632C 18074A   20072.00000000  .00000227  00000-0  00000-0 0   722",
      "2 43632   0.0080 134.1899 0001387 240.5333 200.4676  1.00272593    17"
    ],
    "HORIZONS 3E": [
      "1 43633C 18074B   20069.00000000  .00000081  00000-0  00000-0 0   693",
      "2 43633   0.0132 259.0482 0000587 129.5463 307.5403  1.00267977    19"
    ],
    "HORIZONS 3E-1": [
      "1 43633C 18074B   20072.00000000 -.00000015  00000-0  00000-0 0   729",
      "2 43633   0.0177 293.4166 0000624 121.3250 284.3377  1.00269865    15"
    ],
    "INTELSAT 39": [
      "1 44476C 19049B   20069.00000000  .00000124  00000-0  00000-0 0   690",
      "2 44476   0.0022 172.1752 0000706 220.3544 196.5452  1.00269945    18"
    ],
    "INTELSAT 39         [PM]": [
      "1 44476C 19049B   20071.10973380  .00000131  00000-0  00000-0 0   715",
      "2 44476   0.0045 203.6746 0000775 193.8701 233.1010  1.00270942    18"
    ],
    "INTELSAT 39-1": [
      "1 44476C 19049B   20072.00000000  .00000120  00000-0  00000-0 0   724",
      "2 44476   0.0036 208.5047 0000738 210.2328 173.2793  1.00269803    10"
    ]
  }]
}
